ONEWEB-0068             
1 45446U 20020Y   26195.54388574 -.00000141  00000+0 -43467-3 0  9998
2 45446  87.8891  15.6177 0001644  91.8247 268.3069 13.11418921306182
ONEWEB-0046             
1 45447U 20020Z   26195.91701424 -.00000462  00000+0 -13398-2 0  9998
2 45447  87.8882  15.5471 0001658  83.5891 276.5425 13.11418190306249
ONEWEB-0063             
1 45448U 20020AA  26195.86970157  .00000481  00000+0  13200-2 0  9995
2 45448  87.8893  15.5577 0001921  81.6923 278.4423 13.11416525306325
ONEWEB-0019             
1 45449U 20020AB  26195.90840737  .00000010  00000+0 -79058-5 0  9996
2 45449  87.8884  15.5353 0002006  96.2443 263.8914 13.11412187306178
ONEWEB-0094             
1 45450U 20020AC  26195.91965360 -.00000008  00000+0 -52873-4 0  9992
2 45450  87.9155   0.3341 0001813 101.1404 258.9932 13.17649097309962
ONEWEB-0087             
1 45451U 20020AD  26195.95589207  .00000516  00000+0  14206-2 0  9997
2 45451  87.8900  15.5171 0001580  95.3192 264.8116 13.11415841306226
ONEWEB-0082             
1 45452U 20020AE  26195.87620689  .00000395  00000+0  10776-2 0  9992
2 45452  87.8893  15.5474 0001361  87.8146 272.3137 13.11415714306301
ONEWEB-0050             
1 45453U 20020AF  26195.60282050  .00000979  00000+0  98207-4 0  9995
2 45453  88.9280 229.4863 0002245 176.0679 184.0568 14.90471761344464
ONEWEB-0034             
1 45454U 20020AG  26195.91378948 -.00000526  00000+0 -15187-2 0  9996
2 45454  87.8891  15.5491 0001824  89.8301 270.3035 13.11416195306229
ONEWEB-0060             
1 45455U 20020AH  26195.94501360  .00000513  00000+0  14103-2 0  9997
2 45455  87.8886  15.5388 0001173 120.5346 239.5898 13.11417498306184
ONEWEB-0086             
1 45456U 20020AJ  26195.92366748 -.00000307  00000+0 -90303-3 0  9995
2 45456  87.8893  15.5406 0001831 114.5083 245.6236 13.11418775306246
ONEWEB-0088             
1 45457U 20020AK  26195.90175645 -.00000351  00000+0 -10252-2 0  9991
2 45457  87.8898  15.5197 0001729  77.2206 282.9115 13.11415200306179
ONEWEB-0102             
1 47258U 20100A   26195.88429482  .00000018  00000+0  14316-4 0  9994
2 47258  87.8963 345.1665 0002024 103.0877 257.0477 13.12442024268363
ONEWEB-0109             
1 47259U 20100B   26195.89276111 -.00000240  00000+0 -70153-3 0  9994
2 47259  87.8972 345.1506 0002014  97.1801 262.9557 13.12442451268196
ONEWEB-0110             
1 47260U 20100C   26195.91987739 -.00000171  00000+0 -50942-3 0  9991
2 47260  87.8971 345.1295 0001812 105.4341 254.6988 13.12444731268367
ONEWEB-0111             
1 47261U 20100D   26195.87413407  .00000408  00000+0  10985-2 0  9996
2 47261  87.8970 345.1571 0001740  96.6320 263.5007 13.12442867268192
ONEWEB-0114             
1 47262U 20100E   26195.90461754 -.00000404  00000+0 -11590-2 0  9990
2 47262  87.8974 345.1494 0002059  95.3891 264.7473 13.12442957268150
ONEWEB-0117             
1 47263U 20100F   26195.89614843 -.00000305  00000+0 -88397-3 0  9998
2 47263  87.8969 345.1410 0001842  96.7282 263.4056 13.12441983268163
ONEWEB-0118             
1 47264U 20100G   26195.85380398  .00000209  00000+0  54484-3 0  9991
2 47264  87.8967 345.1522 0001997  87.1353 273.0005 13.12442773268350
ONEWEB-0119             
1 47265U 20100H   26195.87921660  .00000217  00000+0  56829-3 0  9991
2 47265  87.8960 345.1611 0001863  95.6242 264.5099 13.12441485268331
ONEWEB-0120             
1 47266U 20100J   26195.90306302 -.00000415  00000+0 -11882-2 0  9997
2 47266  87.8961 345.1579 0002042  95.7005 264.4356 13.12442215268364
ONEWEB-0121             
1 47267U 20100K   26195.89106626 -.00000232  00000+0 -67979-3 0  9999
2 47267  87.8972 345.1491 0001544  98.7389 261.3915 13.12441259268278
ONEWEB-0122             
1 47268U 20100L   26195.80890093  .00000036  00000+0  65366-4 0  9998
2 47268  87.8974 345.1704 0001972  98.5905 261.5447 13.12440396268177
ONEWEB-0123             
1 47269U 20100M   26195.80466779  .00000151  00000+0  38337-3 0  9994
2 47269  87.8961 345.1750 0001856  92.6961 267.4380 13.12441506268314
ONEWEB-0124             
1 47270U 20100N   26195.94698132  .00000381  00000+0  10243-2 0  9991
2 47270  87.8959 345.1496 0001755  96.7147 263.4181 13.12442232268210
ONEWEB-0125             
1 47271U 20100P   26195.84871438  .00000071  00000+0  16095-3 0  9991
2 47271  87.8970 345.1556 0001607  89.1526 270.9787 13.12443943268264
ONEWEB-0126             
1 47272U 20100Q   26195.94543667  .00000454  00000+0  12271-2 0  9999
2 47272  87.8964 345.1504 0001963  94.6119 265.5234 13.12442248268348
ONEWEB-0127             
1 47273U 20100R   26195.91139559 -.00000395  00000+0 -11342-2 0  9992
2 47273  87.8961 345.1546 0002005  96.8387 263.2970 13.12443524268363
ONEWEB-0128             
1 47274U 20100S   26195.85719017  .00000421  00000+0  11350-2 0  9996
2 47274  87.8959 345.1793 0001501  99.3239 260.8059 13.12443358268376
ONEWEB-0129             
1 47275U 20100T   26195.91309153 -.00000375  00000+0 -10772-2 0  9997
2 47275  87.8969 345.1445 0002990  93.9680 266.1791 13.12443255268317
