OBJECT_NAME,OBJECT_ID,EPOCH,MEAN_MOTION,ECCENTRICITY,INCLINATION,RA_OF_ASC_NODE,ARG_OF_PERICENTER,MEAN_ANOMALY,EPHEMERIS_TYPE,CLASSIFICATION_TYPE,NORAD_CAT_ID,ELEMENT_SET_NO,REV_AT_EPOCH,BSTAR,MEAN_MOTION_DOT,MEAN_MOTION_DDOT
ONEWEB-0068,2020-020Y,2026-07-14T13:03:11.727936,13.11418921,.0001644,87.8891,15.6177,91.8247,268.3069,0,U,45446,999,30618,-.43467E-3,-.141E-5,0
ONEWEB-0046,2020-020Z,2026-07-14T22:00:30.030336,13.11418190,.0001658,87.8882,15.5471,83.5891,276.5425,0,U,45447,999,30624,-.13397534E-2,-.462E-5,0
ONEWEB-0063,2020-020AA,2026-07-14T20:52:22.215648,13.11416525,.00019213,87.8893,15.5577,81.6923,278.4423,0,U,45448,999,30632,.13200357E-2,.481E-5,0
ONEWEB-0019,2020-020AB,2026-07-14T21:48:06.396768,13.11412187,.00020069,87.8884,15.5353,96.2443,263.8914,0,U,45449,999,30617,-.7905842E-5,.1E-6,0
ONEWEB-0094,2020-020AC,2026-07-14T22:04:18.071040,13.17649097,.00018137,87.9155,0.3341,101.1404,258.9932,0,U,45450,999,30996,-.5287274E-4,-.8E-7,0
ONEWEB-0087,2020-020AD,2026-07-14T22:56:29.074848,13.11415841,.00015801,87.8900,15.5171,95.3192,264.8116,0,U,45451,999,30622,.14206251E-2,.516E-5,0
ONEWEB-0082,2020-020AE,2026-07-14T21:01:44.275296,13.11415714,.00013615,87.8893,15.5474,87.8146,272.3137,0,U,45452,999,30630,.10775685E-2,.395E-5,0
ONEWEB-0050,2020-020AF,2026-07-14T14:28:03.691200,14.90471761,.0002245,88.9280,229.4863,176.0679,184.0568,0,U,45453,999,34446,.98207E-4,.979E-5,0
ONEWEB-0034,2020-020AG,2026-07-14T21:55:51.411072,13.11416195,.00018241,87.8891,15.5491,89.8301,270.3035,0,U,45454,999,30622,-.15187254E-2,-.526E-5,0
ONEWEB-0060,2020-020AH,2026-07-14T22:40:49.175040,13.11417498,.00011735,87.8886,15.5388,120.5346,239.5898,0,U,45455,999,30618,.14102589E-2,.513E-5,0
ONEWEB-0086,2020-020AJ,2026-07-14T22:10:04.870272,13.11418775,.00018319,87.8893,15.5406,114.5083,245.6236,0,U,45456,999,30624,-.90303491E-3,-.307E-5,0
ONEWEB-0088,2020-020AK,2026-07-14T21:38:31.757280,13.11415200,.00017291,87.8898,15.5197,77.2206,282.9115,0,U,45457,999,30617,-.10252315E-2,-.351E-5,0
ONEWEB-0102,2020-100A,2026-07-14T21:13:23.072448,13.12442024,.0002024,87.8963,345.1665,103.0877,257.0477,0,U,47258,999,26836,.14316415E-4,.18E-6,0
ONEWEB-0109,2020-100B,2026-07-14T21:25:34.559904,13.12442451,.00020148,87.8972,345.1506,97.1801,262.9557,0,U,47259,999,26819,-.7015305E-3,-.24E-5,0
ONEWEB-0110,2020-100C,2026-07-14T22:04:37.406496,13.12444731,.00018123,87.8971,345.1295,105.4341,254.6988,0,U,47260,999,26836,-.5094208E-3,-.171E-5,0
ONEWEB-0111,2020-100D,2026-07-14T20:58:45.183648,13.12442867,.00017403,87.8970,345.1571,96.6320,263.5007,0,U,47261,999,26819,.10984815E-2,.408E-5,0
ONEWEB-0114,2020-100E,2026-07-14T21:42:38.955456,13.12442957,.00020597,87.8974,345.1494,95.3891,264.7473,0,U,47262,999,26815,-.11589779E-2,-.404E-5,0
ONEWEB-0117,2020-100F,2026-07-14T21:30:27.224352,13.12441983,.00018422,87.8969,345.1410,96.7282,263.4056,0,U,47263,999,26816,-.88397433E-3,-.305E-5,0
ONEWEB-0118,2020-100G,2026-07-14T20:29:28.663872,13.12442773,.00019979,87.8967,345.1522,87.1353,273.0005,0,U,47264,999,26835,.54483524E-3,.209E-5,0
ONEWEB-0119,2020-100H,2026-07-14T21:06:04.314240,13.12441485,.00018631,87.8960,345.1611,95.6242,264.5099,0,U,47265,999,26833,.56829163E-3,.217E-5,0
ONEWEB-0120,2020-100J,2026-07-14T21:40:24.644928,13.12442215,.00020424,87.8961,345.1579,95.7005,264.4356,0,U,47266,999,26836,-.11881838E-2,-.415E-5,0
ONEWEB-0121,2020-100K,2026-07-14T21:23:08.124864,13.12441259,.00015445,87.8972,345.1491,98.7389,261.3915,0,U,47267,999,26827,-.6797936E-3,-.232E-5,0
ONEWEB-0122,2020-100L,2026-07-14T19:24:49.040352,13.12440396,.00019724,87.8974,345.1704,98.5905,261.5447,0,U,47268,999,26817,.6536594E-4,.36E-6,0
ONEWEB-0123,2020-100M,2026-07-14T19:18:43.297056,13.12441506,.00018568,87.8961,345.1750,92.6961,267.4380,0,U,47269,999,26831,.38337089E-3,.151E-5,0
ONEWEB-0124,2020-100N,2026-07-14T22:43:39.186048,13.12442232,.00017558,87.8959,345.1496,96.7147,263.4181,0,U,47270,999,26821,.10242643E-2,.381E-5,0
ONEWEB-0125,2020-100P,2026-07-14T20:22:08.922432,13.12443943,.00016075,87.8970,345.1556,89.1526,270.9787,0,U,47271,999,26826,.1609464E-3,.71E-6,0
ONEWEB-0126,2020-100Q,2026-07-14T22:41:25.728288,13.12442248,.00019633,87.8964,345.1504,94.6119,265.5234,0,U,47272,999,26834,.1227141E-2,.454E-5,0
ONEWEB-0127,2020-100R,2026-07-14T21:52:24.578976,13.12443524,.00020051,87.8961,345.1546,96.8387,263.2970,0,U,47273,999,26836,-.11342438E-2,-.395E-5,0
ONEWEB-0128,2020-100S,2026-07-14T20:34:21.230688,13.12443358,.00015019,87.8959,345.1793,99.3239,260.8059,0,U,47274,999,26837,.11350306E-2,.421E-5,0
ONEWEB-0129,2020-100T,2026-07-14T21:54:51.108192,13.12443255,.00029902,87.8969,345.1445,93.9680,266.1791,0,U,47275,999,26831,-.10772435E-2,-.375E-5,0
